#aV2021  3 24  0  0  0.00000000     288 DD+AD WGS84 FIT  NGA
## 2150 259200.00000000   300.00000000 59297 0.0000000000000
+   32     1  2  3  4  5  6  7  8  9 10 11 12 13 14 15 16 17
+         18 19 20 21 22 23 24 25 26 27 28 29 30 31 32  0  0
+          0  0  0  0  0  0  0  0  0  0  0  0  0  0  0  0  0
+          0  0  0  0  0  0  0  0  0  0  0  0  0  0  0  0  0
+          0  0  0  0  0  0  0  0  0  0  0  0  0  0  0  0  0
++         2  2  2  2  2  2  2  2  2  2  2  2  2  2  2  2  2
++         2  2  2  2  2  2  2  2  2  2  2  2  2  2  2  0  0
++         0  0  0  0  0  0  0  0  0  0  0  0  0  0  0  0  0
++         0  0  0  0  0  0  0  0  0  0  0  0  0  0  0  0  0
++         0  0  0  0  0  0  0  0  0  0  0  0  0  0  0  0  0
%c cc cc ccc ccc cccc cccc cccc cccc ccccc ccccc ccccc ccccc
%c cc cc ccc ccc cccc cccc cccc cccc ccccc ccccc ccccc ccccc
%f  0.0000000  0.000000000  0.00000000000  0.000000000000000
%f  0.0000000  0.000000000  0.00000000000  0.000000000000000
%i    0    0    0    0      0      0      0      0         0
%i    0    0    0    0      0      0      0      0         0
/*      NGA, ST. LOUIS,MO.                                  
/*   EPHEMERIS COMPUTED FROM 2 DAYS OF DATA                 
/*   EPOCHA v5 SMOOTHER                                     
/*   G2139 IERS2010 SATAF SATAPC                            
*  2021  3 24  7 10  0.00000000
P  1 -14152.300892  21812.253383   4167.131768    733.912363                    
V  1    431.543090  -6106.402821  31897.645622     -0.091125                    
P  2  16288.180791  -2805.737604 -20144.511408   -589.099151                    
V  2  -9234.064766  25457.393183 -10631.511924     -0.036255                    
P  3 -15747.623290  12815.984508 -17143.940685   -116.795715                    
V  3 -21701.085139   -270.309435  19928.588068     -0.107679                    
P  4  -7438.589181  15173.326144 -20473.630045   -187.987583                    
V  4 -14528.217579 -21610.698019 -10787.224576     -0.021750                    
P  5  26250.021941  -4106.927309   2088.136333    -37.081934                    
V  5   3087.276734   2536.395607 -31364.798113     -0.010735                    
P  6  10475.358745  11250.241535 -21588.657502      2.567082                    
V  6 -12640.015214  24435.159734   6637.179836      0.022031                    
P  7  -4752.003104  24241.495865   9400.937860     99.966247                    
V  7  -8022.374885   8978.162164 -28715.034021      0.121676                    
P  8 -13097.526926   7503.571547  21859.665750    -14.904371                    
V  8 -15774.213717 -22805.121824  -1326.714940     -0.014251                    
P  9   2781.909372  22115.060762 -14482.982490   -333.583383                    
V  9 -12277.148802 -13784.526675 -23522.826213     -0.029986                    
P 10 -14556.310169 -12049.226049  18885.379135    -87.455731                    
V 10  23500.065475  -2716.467504  16220.637547     -0.078872                    
P 11  -9859.231868  20560.549550  13474.774298      9.826628                    
V 11  -3585.063480 -17739.954156  23297.812046      0.106411                    
P 12  19358.892430 -10185.489045 -15210.782698    -18.279326                    
V 12  18883.393901   1902.980073  23292.339757     -0.053400                    
P 13  16931.518628   3067.234341  20134.385939    111.490877                    
V 13  10523.247201  23580.870910 -12235.316077      0.044741                    
P 14  12791.380315  13235.281686  19143.556966     99.465777                    
V 14 -24306.665401   1825.141305  14952.609396     -0.009248                    
P 15  12623.166396  -9411.331465  21038.649873   -161.012953                    
V 15  17882.730064  21120.873902   -905.939977      0.025921                    
P 16 -26796.809407   -997.304565   -428.014179   -298.775476                    
V 16    294.096921  -1990.577687 -31737.548722     -0.058418                    
P 17  13634.513810  22773.857458   -470.892245    414.822119                    
V 17  -1277.046820   2036.609910  32231.708236      0.062583                    
P 18   2757.726231 -23409.282507  12178.018556    351.099639                    
V 18   9133.282500 -12697.323120 -26518.673494      0.005936                    
P 19  16855.525746  18369.376229  -9584.266911    -22.254178                    
V 19   3825.157249  11211.899056  28983.027866      0.050057                    
P 20   2720.831334 -16180.684208  20787.745241    523.893334                    
V 20  26267.765190  -4546.244498  -7253.564515     -0.003890                    
P 21 -16533.936215  16535.134080  12869.959250    105.583611                    
V 21   3458.300098 -15200.151352  25868.595437      0.029521                    
P 22 -22523.082101  10413.162361  -9018.190713   -653.752731                    
V 22 -12238.064946  -1575.670077  28310.682839      0.082796                    
P 23  -2293.444191 -14998.251917  21780.311634    116.614148                    
V 23  27577.401539  -2558.163720   1100.694631     -0.012827                    
P 24  15451.483094 -18981.968572   9567.072264      0.680379                    
V 24  -1494.356610  13083.952325  28062.525967     -0.004497                    
P 25   5358.637478 -15244.105954 -21295.142147    104.916484                    
V 25  26476.352726   -963.419518   7715.736450      0.074018                    
P 26 -24140.212618  -4961.009564 -10304.221147     62.418487                    
V 26  12581.423058  -4123.432221 -27373.898506      0.052912                    
P 27 -18499.881825  -5553.985426  18228.167851    -99.793636                    
V 27 -11985.965239 -20023.406860 -17741.243381     -0.070672                    
P 28  14602.975200  12995.918293  18448.631888    597.516577                    
V 28 -22369.697215    639.700164  17984.814405     -0.057660                    
P 29  -1820.005948 -22368.606994 -14217.334229   -317.466110                    
V 29  10229.686891  14832.750892 -24762.101109     -0.069081                    
P 30   5377.259527  18501.567806  18236.785264   -402.896821                    
V 30 -12599.418155  19598.888528 -16441.176924     -0.054414                    
P 31 -12859.063550  -8457.991573 -21707.474720   -107.430333                    
V 31  13110.842715 -24075.688223   2077.313878     -0.022702                    
P 32 -16140.792286 -21082.890027  -2216.256889     21.643655                    
V 32    654.999398  -3975.989906  31408.441106      0.004782                    
EOF
